id	title	title_source	title_uri	ccodes	matches	names	types	aat_types	parent_name	parent_id	lon	lat	geowkt	geo_source	geo_id	start	end
8349794	Cidade Velha			CV	wd:None;wd:Q464913;gn:3374725;viaf:124469319;loc:n91010373	Cidade Velha					-23.604166666667	14.916666666667	MULTIPOINT (-23.604166666667 14.916666666667)		wd:	2026	
8349795	Dakar			SN	wd:None;wd:Q3718;gn:2253354;gnd:4010921-5;viaf:133615639;loc:n79108879;bnf:11863399c	Dakar					-17.457222222222	14.731944444444	MULTIPOINT (-17.457222222222 14.731944444444)		wd:	2026	
8349797	Harar Jugol			ET	wd:None;wd:Q190184;gn:335035;gnd:4023411-3	Harar Jugol					42.127777777778	9.3111111111111	MULTIPOINT (42.127777777778 9.311111111111099)		wd:	2026	
8349798	Island of Mozambique			MZ	wd:None;wd:Q331099;gn:1037390;viaf:315129671;gnd:4822016-4	Island of Mozambique					40.732777777778	-15.036666666667	MULTIPOINT (40.732777777778 -15.036666666667)		wd:	2026	
8349799	Lamu			KE	wd:None;wd:Q272799;gn:7667643;viaf:235949385	Lamu					40.900277777778	-2.2686111111111	MULTIPOINT (40.900277777778 -2.2686111111111)		wd:	2026	
8349800	Mombasa			KE	wd:None;wd:Q225641;gn:186301;gnd:4040023-2;viaf:125477296;bnf:11932515c;loc:n79055155	Mombasa					39.666666666667	-4.05	MULTIPOINT (39.666666666667 -4.05)		wd:	2026	
8349801	Saint-Louis			SN	wd:None;wd:Q273779;gn:2246452;gnd:4118222-4;viaf:145458067;loc:n83193984;bnf:11581254j	Saint-Louis					-16.5	16.033333333333	MULTIPOINT (-16.5 16.033333333333)		wd:	2026	
8349802	Timbuktu			ML	wd:None;wd:Q9427;gn:2449067;gnd:4119616-8;viaf:145377145;loc:n82085135	Timbuktu					-2.9994438888889	16.773333055556	MULTIPOINT (-2.9994438888889 16.773333055556)		wd:	2026	
8349803	Zanzibar City			TZ	wd:None;wd:Q2222874;gn:148730;bnf:15079242z;viaf:24144648190506101862	Zanzibar City					39.2	-6.1666666666667	MULTIPOINT (39.2 -6.1666666666667)		wd:	2026	
8349804	Aleppo			SY	wd:None;wd:Q41183;gnd:4001116-1;gn:170063;tgn:1002052;viaf:152061976;viaf:130268283;bnf:11965989c;pl:658409;loc:n81053997	Aleppo					37.15	36.2	MULTIPOINT (37.15 36.2)		wd:	2026	
8349805	Algiers			DZ	wd:None;wd:Q3561;gnd:4084955-7;gn:2507480;viaf:122613150;loc:n79058668;bnf:11948367q	Algiers					3.0586111111111	36.776388888889	MULTIPOINT (3.0586111111111 36.776388888889)		wd:	2026	
8349806	Cairo			EG	wd:None;wd:Q85;gnd:4029236-8;gn:360630;loc:n79055723;bnf:13181517r;viaf:125715126;tgn:7001215	Cairo					31.239444444444	30.056111111111	MULTIPOINT (31.239444444444 30.056111111111)		wd:	2026	
8349807	Damascus			SY	wd:None;wd:Q3766;gnd:4010956-2;gn:170654;loc:n79143055;viaf:238973527;viaf:146573830;pl:678106	Damascus					36.291944444444	33.513055555556	MULTIPOINT (36.291944444444 33.513055555556)		wd:	2026	
8349808	Erbil			IQ	wd:None;wd:Q132754;gn:95446;gnd:4068823-9;viaf:130212079;loc:n82137042;pl:874341;tgn:7002589	Erbil					44.009444444444	36.191111111111	MULTIPOINT (44.009444444444 36.191111111111)		wd:	2026	
8349809	Essaouira			MA	wd:None;wd:Q216939;gnd:4115178-1;gn:2549263;viaf:140674598;loc:n79051879	Essaouira					-9.768696	31.513023	MULTIPOINT (-9.768696 31.513023)		wd:	2026	
8349810	Fez			MA	wd:None;wd:Q80985;gn:2548885;gnd:4092159-1;viaf:248988837;viaf:167122806;loc:n79144976	Fez					-5.003333333333333	34.04333333333334	MULTIPOINT (-5.003333333333333 34.04333333333334)		wd:	2026	
8349811	Ghadames			LY	wd:None;wd:Q192237;gn:2217440;viaf:50144648413742392289;gnd:4251667-5;bnf:119435583	Ghadames					9.5	30.133333333333	MULTIPOINT (9.5 30.133333333333)		wd:	2026	
8349812	Ghardaïa			DZ	wd:None;wd:Q622841;gn:2496049;gnd:4086717-1;loc:n85189316;viaf:123222955	Ghardaïa					3.6666666666667	32.483333333333	MULTIPOINT (3.6666666666667 32.483333333333)		wd:	2026	
8349813	Jeddah			SA	wd:None;wd:Q374365;gn:105343;gnd:4091273-5;bnf:12083288m;viaf:142144648495666137572	Jeddah					39.172777777778	21.542777777778	MULTIPOINT (39.172777777778 21.542777777778)		wd:	2026	
8349814	Kairouan			TN	wd:None;wd:Q179570;gnd:4029239-3;gn:2473449;bnf:11938055p;loc:n82164827;viaf:266992672	Kairouan					10.1	35.68333333333333	MULTIPOINT (10.1 35.68333333333333)		wd:	2026	
8349815	Marrakesh			MA	wd:None;wd:Q101625;gn:2542997;gnd:4037684-9;viaf:260256435;viaf:138361991;bnf:11933506n;loc:n80162919	Marrakesh					-7.98108	31.62947	MULTIPOINT (-7.98108 31.62947)		wd:	2026	
8349816	Meknes			MA	wd:None;wd:Q178663;gn:2542715;viaf:129002623;loc:n80067218	Meknes					-5.55	33.883333333333	MULTIPOINT (-5.55 33.883333333333)		wd:	2026	
8349817	Muharraq			BH	wd:None;wd:Q270500;gn:290332;gnd:7571841-8;bnf:13735273c;loc:n83197462;viaf:146621871	Muharraq					50.616666666667	26.25	MULTIPOINT (50.616666666667 26.25)		wd:	2026	
8349818	Rabat			MA	wd:None;wd:Q3551;gn:2538475;gnd:4076467-9;viaf:124355341;loc:n80076442;bnf:12551094r	Rabat					-6.8361111111111	34.025277777778	MULTIPOINT (-6.8361111111111 34.025277777778)		wd:	2026	
8349819	Sanaa			YE	wd:None;wd:Q2471;gn:71137;gn:6940571;gnd:4051533-3;viaf:148922407;loc:n80086523	Sanaa					44.2	15.35	MULTIPOINT (44.2 15.35)		wd:	2026	
8349820	Shibam			YE	wd:None;wd:Q192518;gn:70676;viaf:154868327;loc:n87898044	Shibam					48.626666666666665	15.926944444444445	MULTIPOINT (48.62666666666667 15.92694444444444)		wd:	2026	
8349821	Sousse			TN	wd:None;wd:Q180717;gn:2464915;gnd:4118914-0;viaf:76145424523286831333;viaf:168418765;bnf:11937943x;loc:n80050193	Sousse					10.633333333333	35.833333333333	MULTIPOINT (10.633333333333 35.833333333333)		wd:	2026	
8349822	Tétouan			MA	wd:None;wd:Q185157;gn:2528910;viaf:126397089;bnf:119577115;loc:n81139899	Tétouan					-5.3666666666667	35.566666666667	MULTIPOINT (-5.3666666666667 35.566666666667)		wd:	2026	
8349823	Tunis			TN	wd:None;wd:Q3572;gn:2464470;gnd:4107317-4;viaf:134590523;loc:n79065310;tgn:7001016	Tunis					10.18	36.800833333333	MULTIPOINT (10.18 36.800833333333)		wd:	2026	
8349824	Zabid			YE	wd:None;wd:Q138986;gn:69500;viaf:139568787;bnf:13172411f;loc:n81130645	Zabid					43.316666666667	14.2	MULTIPOINT (43.316666666667 14.2)		wd:	2026	
8349825	Ahmedabad			IN	wd:None;wd:Q1070;gn:1279233;gnd:4000813-7;viaf:140091243;viaf:133638224;bnf:13511326d;loc:n81094923	Ahmedabad					72.58	23.03	MULTIPOINT (72.58 23.03)		wd:	2026	
8349826	Acre			IL	wd:None;wd:Q126084;gnd:4068495-7;gn:295721;viaf:145953669;loc:n80001043;pl:678010;bnf:120654229	Acre					35.083888888889	32.926111111111	MULTIPOINT (35.083888888889 32.926111111111)		wd:	2026	
8349828	Jaipur			IN	wd:None;wd:Q66485;gn:1269515;gnd:4109106-1;loc:n80019671;viaf:8479152200804414400007;bnf:12002519q;tgn:7001544	Jaipur					75.866666666667	26.916666666667	MULTIPOINT (75.866666666667 26.916666666667)		wd:	2026	
8349829	Andong			KR	wd:None;wd:Q42116;gn:1846986;loc:n79074663;viaf:136029698	Andong					128.725	36.565555555556	MULTIPOINT (128.725 36.565555555556)		wd:	2026	
8349830	Anuradhapura			LK	wd:None;wd:Q5724;gn:1251081;gnd:4321066-1;viaf:144277769;bnf:12650697c;loc:n82237721	Anuradhapura					80.410833333333	8.335	MULTIPOINT (80.410833333333 8.335000000000001)		wd:	2026	
8349831	Baku-Old City			AZ		Baku-Old City										2026	
8349838	Chengde			CN	wd:None;wd:Q58675;gn:2038087;gn:2038085;gnd:4069946-8;viaf:135336148;bnf:12040124j;loc:nr2004009772	Chengde					117.93222222222	40.973888888889	MULTIPOINT (117.93222222222 40.973888888889)		wd:	2026	
8349839	Denpasar			ID	wd:None;wd:Q11506;gn:1645528;gn:1645527;gnd:4329689-0;viaf:143053926;tgn:1077630;loc:n79063963	Denpasar					115.21666666667	-8.6666666666667	MULTIPOINT (115.21666666667 -8.6666666666667)		wd:	2026	
8349840	Diyarbakır			TR	wd:None;wd:Q83387;gn:316541;gnd:4091063-5;viaf:148996542;loc:n85272750;pl:874298	Diyarbakır					40.236666666667	37.910833333333	MULTIPOINT (40.236666666667 37.910833333333)		wd:	2026	
8349841	Dujiangyan City			CN	wd:None;wd:Q1023900;gn:1809831	Dujiangyan City					103.62403	30.99331	MULTIPOINT (103.62403 30.99331)		wd:	2026	
8349842	Galle			LK	wd:None;wd:Q319366;gn:1246294;gnd:4224011-6;viaf:234665746;loc:n84195936;bnf:15539208t	Galle					80.219421	6.039505	MULTIPOINT (80.219421 6.039505)		wd:	2026	
8349865	Lalitpur			NP		Lalitpur (Patan)										2026	
8349871	Miagao			PH	wd:None;wd:Q74753;gn:1699791;viaf:150130035;loc:n83009105	Miagao					122.2352	10.6442	MULTIPOINT (122.2352 10.6442)		wd:	2026	
8349875	Selçuk			TR	wd:None;wd:Q876176;gn:301256;gn:8632426;gnd:7616791-4;viaf:124472017;loc:n91065711;bnf:11962273b;tgn:1086870	Selçuk					27.366666666667	37.95	MULTIPOINT (27.366666666667 37.95)		wd:	2026	
8349876	Seongbuk			KR	wd:None;wd:Q50412;gn:8349532;viaf:126722798;loc:n84181714	Seongbuk					127.018206	37.589181	MULTIPOINT (127.018206 37.589181)		wd:	2026	
8349877	Singapore			SG	wd:None;wd:Q334;viaf:151204333;bnf:11865542f;loc:n79059023;gnd:4055089-8;gn:1880251;tgn:7000381	Singapore					103.8	1.3	MULTIPOINT (103.8 1.3)		wd:	2026	
8349878	Surakarta			ID	wd:None;wd:Q4803;gn:1625812;gnd:5059621-4;viaf:139569812;bnf:11962336d;loc:n81141825	Surakarta					110.81666666667	-7.5666666666667	MULTIPOINT (110.81666666667 -7.5666666666667)		wd:	2026	
8349879	Suwon			KR	wd:None;wd:Q20714;gn:1835553;gn:1835551;gnd:7718026-4;viaf:158272259;loc:n80046823	Suwon					127.01	37.285833333333	MULTIPOINT (127.01 37.285833333333)		wd:	2026	
8349880	Suzhou			CN	wd:None;wd:Q42622;gn:1886760;viaf:151473684;gnd:4247872-8;bnf:15120250j	Suzhou					120.61642	31.30401	MULTIPOINT (120.61642 31.30401)		wd:	2026	
8349881	Tel Aviv			IL	wd:None;wd:Q33935;gnd:4059353-8;gnd:4119545-0;gn:293397;viaf:147389318;loc:n79066414;bnf:11998352q;tgn:7001369	Tel Aviv					34.78	32.08	MULTIPOINT (34.78 32.08)		wd:	2026	
8349882	Turkistan			KZ	wd:None;wd:Q848638;gn:1517945;loc:n00022633;viaf:126631370	Turkistan					68.243611111111	43.3	MULTIPOINT (68.24361111111099 43.3)		wd:	2026	
8349883	Vigan			PH	wd:None;wd:Q235004;gn:1679980;viaf:153954077;loc:no2003124362	Vigan					120.38694	17.57472	MULTIPOINT (120.38694 17.57472)		wd:	2026	
8349884	Yangsan			KR	wd:None;wd:Q42123;gn:1832828	Yangsan					129.03861111111	35.338611111111	MULTIPOINT (129.03861111111 35.338611111111)		wd:	2026	
8349885	Yazd			IR	wd:None;wd:Q182394;gn:111822;gnd:1051177-5;viaf:157739014	Yazd					54.367777777778	31.897222222222	MULTIPOINT (54.367777777778 31.897222222222)		wd:	2026	
8349886	Yeongju			KR	wd:None;wd:Q42126	Yeongju					128.63083333333	36.821666666667	MULTIPOINT (128.63083333333 36.821666666667)		wd:	2026	
8349887	Yerevan			AM	wd:None;wd:Q1953;gnd:4098059-5;gn:616051;viaf:125481980;loc:n79142628;bnf:119581692;tgn:7012650	Yerevan					44.514444444444	40.181388888889	MULTIPOINT (44.514444444444 40.181388888889)		wd:	2026	
8349888	Alcalá de Henares			ES	wd:None;wd:Q46940;gnd:4079690-5;loc:n79053993;viaf:312539507;gn:3130616;pl:246352;bnf:12531942k	Alcalá de Henares					-3.364305	40.481815	MULTIPOINT (-3.364305 40.481815)		wd:	2026	
8349889	Amsterdam			NL	wd:None;wd:Q727;gnd:4001783-7;viaf:158212776;loc:n78095634;gn:2759794;bnf:119430472;tgn:7006952	Amsterdam					4.9	52.383333333333	MULTIPOINT (4.9 52.383333333333)		wd:	2026	
8349890	Angra do Heroísmo			PT	wd:None;wd:Q193677;gn:3373348;gn:8010691;gnd:4085790-6;tgn:1000809;viaf:154798579;loc:n82161464	Angra do Heroísmo					-27.215277777778	38.655833333333	MULTIPOINT (-27.215277777778 38.655833333333)		wd:	2026	
8349891	Aranjuez			ES	wd:None;wd:Q31910934;gn:6359239	Aranjuez					-3.6016583333333	40.032244444444	MULTIPOINT (-3.6016583333333 40.032244444444)		wd:	2026	
8349892	Augsburg			DE	wd:None;wd:Q2749;gnd:4003614-5;gn:2954172;viaf:153139306;viaf:252184198;loc:n50073906;bnf:11862310j;tgn:7004324	Augsburg					10.898333333333	48.371666666667	MULTIPOINT (10.898333333333 48.371666666667)		wd:	2026	
8349893	Ávila			ES	wd:None;wd:Q15688;gn:6355632;gnd:4079893-8;viaf:155931767;loc:n80001323	Ávila					-4.6962222222222	40.654347222222	MULTIPOINT (-4.6962222222222 40.654347222222)		wd:	2026	
8349894	Baeza			ES	wd:None;wd:Q488555;gn:6358464;viaf:138364490;gnd:4228839-3;loc:n79100747;pl:266099	Baeza					-3.4666666666667	37.983333333333	MULTIPOINT (-3.4666666666667 37.983333333333)		wd:	2026	
8349895	Bamberg			DE	wd:None;wd:Q3936;gnd:4004391-5;gn:6556725;viaf:129007724;bnf:11960901x;tgn:7004325;loc:n80139571	Bamberg					10.891666666667	49.891666666667	MULTIPOINT (10.891666666667 49.891666666667)		wd:	2026	
8349896	Banská Štiavnica			SK	wd:None;wd:Q208110;gn:3061184;gnd:4052241-6;viaf:146630298;loc:n84100227	Banská Štiavnica					18.893055555556	48.458611111111	MULTIPOINT (18.893055555556 48.458611111111)		wd:	2026	
8349897	Bardejov			SK	wd:None;wd:Q27007;gn:725167;gnd:4004566-3;viaf:157108444;loc:n80131483	Bardejov					21.275833333333	49.295	MULTIPOINT (21.275833333333 49.295)		wd:	2026	
8349898	Bath			GB	wd:None;wd:Q22889;gn:2656173;gnd:4086889-8;viaf:137153818;pl:79299;tgn:7011197;loc:n80006275	Bath					-2.358611	51.381389	MULTIPOINT (-2.358611 51.381389)		wd:	2026	
8349899	Beemster			NL	wd:None;wd:Q9900;gn:2759320	Beemster					4.9278	52.55	MULTIPOINT (4.9278 52.55)		wd:	2026	
8349900	Bergen			NO	wd:None;wd:Q26793;gnd:1027742-0;gn:3161732;viaf:149552590;loc:n79021216	Bergen					5.3233333333333	60.3925	MULTIPOINT (5.3233333333333 60.3925)		wd:	2026	
8349901	Berlin			DE	wd:None;wd:Q64;viaf:122530980;gnd:4005728-8;loc:n79034972;bnf:15298132w;gn:2950159;gn:2950157;gn:6547383;gn:6547539;gov:BERLINJO62PM;tgn:7209904;tgn:7003670;tgn:7003712	Berlin					13.383333333333	52.516666666667	MULTIPOINT (13.383333333333 52.516666666667)		wd:	2026	
8349902	Bern			CH	wd:None;wd:Q70;tgn:7007557;viaf:237298336;gn:7285212;gnd:4005762-8;loc:n79065374	Bern					7.44743	46.94798	MULTIPOINT (7.44743 46.94798)		wd:	2026	
8349904	Biertan			RO	wd:None;wd:Q793388;gn:684888;viaf:235230085	Biertan					24.523611111111	46.139722222222	MULTIPOINT (24.523611111111 46.139722222222)		wd:	2026	
8349905	Bolgar			RU	wd:None;wd:Q105284;gn:570990	Bolgar					49.033333333333	54.966666666667	MULTIPOINT (49.033333333333 54.966666666667)		wd:	2026	
8349906	Bordeaux			FR	wd:None;wd:Q1479;gnd:4088072-2;viaf:141427398;gn:3031582;loc:n79091189;bnf:11862494p;tgn:7008161;pl:138248	Bordeaux					-0.57944444444444	44.837777777778	MULTIPOINT (-0.57944444444444 44.837777777778)		wd:	2026	
8349907	Bruges			BE	wd:None;wd:Q31513590;gn:2800935	Bruges					3.2166666666667	51.25	MULTIPOINT (3.2166666666667 51.25)		wd:	2026	
8349908	Brussels			BE	wd:None;wd:Q239;gn:2800866;gnd:4008460-7;bnf:119334020;bnf:152399296;loc:n79013830;viaf:150675140;tgn:7007868	Brussels					4.351666666666667	50.846666666666664	MULTIPOINT (4.351666666666667 50.84666666666666)		wd:	2026	
8349909	Budapest			HU	wd:None;wd:Q1781;gnd:4008684-7;loc:n79091691;viaf:154759119;gn:3054643;tgn:7017994;tgn:7006280;bnf:119334051	Budapest					19.040833333333	47.498333333333	MULTIPOINT (19.040833333333 47.498333333333)		wd:	2026	
8349910	Cáceres			ES	wd:None;wd:Q15678;gn:2520611;viaf:145400392;gnd:4085107-2;loc:n79023198	Cáceres					-6.3711111111111	39.473055555556	MULTIPOINT (-6.3711111111111 39.473055555556)		wd:	2026	
8349911	Carcassonne			FR	wd:None;wd:Q6582;gnd:4009469-8;viaf:124343560;loc:n81053384;gn:3028641;bnf:152466066	Carcassonne					2.3513888888889	43.215833333333	MULTIPOINT (2.3513888888889 43.215833333333)		wd:	2026	
8349912	Český Krumlov			CZ	wd:None;wd:Q188082;gn:3077889;gnd:4098732-2;viaf:151280665;loc:n81080127	Český Krumlov					14.31520771066	48.810990441614	MULTIPOINT (14.31520771066 48.810990441614)		wd:	2026	
8349914	Córdoba			ES	wd:None;wd:Q101948176;gn:2519240	Córdoba					-4.77275	37.89155	MULTIPOINT (-4.77275 37.89155)		wd:	2026	
8349915	Cuenca			ES	wd:None;wd:Q15098;gn:6357429;gnd:4085363-9;viaf:169873673;loc:n78095696	Cuenca					-2.135	40.071666666667	MULTIPOINT (-2.135 40.071666666667)		wd:	2026	
8349917	Dessau			DE	wd:None;wd:Q487070;gn:2937959;gnd:4011536-7;viaf:155934610;loc:n80043512	Dessau					12.246111111111	51.834166666667	MULTIPOINT (12.246111111111 51.834166666667)		wd:	2026	
8349918	Dubrovnik			HR	wd:None;wd:Q1722;gn:3201047;gn:7577034;gnd:4013176-2;viaf:267372287;viaf:125486611;bnf:119513379;loc:n80061079	Dubrovnik					18.108333333333	42.640277777778	MULTIPOINT (18.108333333333 42.640277777778)		wd:	2026	
8349919	Edinburgh			GB	wd:None;wd:Q23436;gnd:4013557-3;gn:2650225;loc:n79053770;tgn:7009546;viaf:150076018	Edinburgh					-3.1988888888889	55.95	MULTIPOINT (-3.1988888888889 55.95)		wd:	2026	
8349920	Elvas			PT	wd:None;wd:Q243849;gn:2268615;viaf:143990203;bnf:11954345n;gnd:4218849-0;loc:n82029107	Elvas					-7.1627777777778	38.88	MULTIPOINT (-7.1627777777778 38.88)		wd:	2026	
8349921	Évora			PT	wd:None;wd:Q179948;gn:8010502;viaf:129001866;pl:256151;gnd:4085639-2;loc:n80057297	Évora					-7.9072222222222	38.5725	MULTIPOINT (-7.9072222222222 38.5725)		wd:	2026	
8349922	Fontainebleau			FR	wd:None;wd:Q182872;gn:6443660;gnd:4093055-5;viaf:126679056;loc:n81071962;tgn:7008005;bnf:15275526x	Fontainebleau					2.7016666666667	48.408888888889	MULTIPOINT (2.7016666666667 48.408888888889)		wd:	2026	
8349923	Granada			ES	wd:None;wd:Q8810;gn:6357709;gnd:4021815-6;viaf:123881676;loc:n80001328;tgn:7007703	Granada					-3.6008333333333	37.178055555556	MULTIPOINT (-3.6008333333333 37.178055555556)		wd:	2026	
8349924	Graz			AT	wd:None;wd:Q13298;gnd:4021912-4;gn:2778058;viaf:160255975;loc:n79064653;tgn:7003097	Graz					15.433333333333	47.066666666667	MULTIPOINT (15.433333333333 47.066666666667)		wd:	2026	
8349925	Guimarães			PT	wd:None;wd:Q170903;gn:8010453;gnd:4364483-1;viaf:145424485;loc:n81050805	Guimarães					-8.2908333333333	41.445	MULTIPOINT (-8.2908333333333 41.445)		wd:	2026	
8349926	Hamburg			DE	wd:None;wd:Q1055;gn:2911298;viaf:148855657;tgn:7003673;tgn:7005289;gnd:4023118-5;loc:n81086822;bnf:11864269d	Hamburg					10	53.55	MULTIPOINT (10 53.55)		wd:	2026	
8349927	Ibiza			ES	wd:None;wd:Q52631;gn:2516477;viaf:315127257;gnd:4026432-4;loc:sh85063913;pl:265883;pl:265884	Ibiza					1.43	38.98	MULTIPOINT (1.43 38.98)		wd:	2026	
8349928	Istanbul			TR	wd:None;wd:Q406;gnd:4027821-9;viaf:135931454;bnf:11864652s;loc:n79034985;gn:745044;gn:745042;tgn:7002473	Istanbul					28.960277777778	41.01	MULTIPOINT (28.960277777778 41.01)		wd:	2026	
8349929	Karlskrona			SE	wd:None;wd:Q25789;gn:2701713;gnd:4255001-4;viaf:123165603;loc:n81078225	Karlskrona					15.630841782333	56.192210153547	MULTIPOINT (15.630841782333 56.192210153547)		wd:	2026	
8349930	Kazan			RU	wd:None;wd:Q900;gn:551487;gnd:4029844-9;viaf:239874254	Kazan					49.114444444444	55.790833333333	MULTIPOINT (49.114444444444 55.790833333333)		wd:	2026	
8349931	Kolding			DK	wd:None;wd:Q21101;gn:2618525;viaf:8183148122911795200000	Kolding					9.47	55.49	MULTIPOINT (9.470000000000001 55.49)		wd:	2026	
8349932	Kotor			ME	wd:None;wd:Q171080;gn:3197538;gnd:4032572-6;viaf:137836313;bnf:119617170;loc:n79125143	Kotor					18.771191	42.42539	MULTIPOINT (18.771191 42.42539)		wd:	2026	
8349933	Kraków			PL	wd:None;wd:Q31487;viaf:125421472;gnd:4073760-3;loc:n79125145;gn:3094802;bnf:11866004r;tgn:7007652	Kraków					19.937222222222	50.061388888889	MULTIPOINT (19.937222222222 50.061388888889)		wd:	2026	
8349934	Kutná Hora			CZ	wd:None;wd:Q155975;gn:3072463;gnd:4098868-5;viaf:153661033;loc:n84224807;pl:118793;tgn:7011655	Kutná Hora					15.268225887967	49.948444972662	MULTIPOINT (15.268225887967 49.948444972662)		wd:	2026	
8349935	Lviv			UA	wd:None;wd:Q36036;gnd:4035304-7;viaf:268236629;gn:702550;loc:n80089801;bnf:11985932t	Lviv					24.0315	49.841888888889	MULTIPOINT (24.0315 49.841888888889)		wd:	2026	
8349936	Le Havre			FR	wd:None;wd:Q42810;gn:3003796;gnd:4111239-8;viaf:150850470;loc:n50077876;bnf:15274937f;tgn:7008927	Le Havre					0.10805555555556	49.494166666667	MULTIPOINT (0.10805555555556 49.494166666667)		wd:	2026	
8349937	Lübeck			DE	wd:None;wd:Q2843;gnd:4036483-5;loc:n81108828;loc:n82099897;viaf:312802961;gn:7602559;gov:LUBECKJO53IU;bnf:12271049t;tgn:7012327	Lübeck					10.686388888889	53.869722222222	MULTIPOINT (10.686388888889 53.869722222222)		wd:	2026	
8349938	Luxembourg			LU	wd:None;wd:Q1842;gn:2960316;gnd:4036729-0;tgn:7006254;viaf:160050945;viaf:172144783035369474111;loc:n50054179	Luxembourg					6.1327777777778	49.610555555556	MULTIPOINT (6.1327777777778 49.610555555556)		wd:	2026	
8349939	Lyon			FR	wd:None;wd:Q456;gnd:4036770-8;viaf:158189703;gn:2996944;loc:n81086849;bnf:15272211b;tgn:7008772	Lyon					4.8413888888889	45.758888888889	MULTIPOINT (4.8413888888889 45.758888888889)		wd:	2026	
8349940	Mérida			ES	wd:None;wd:Q14323;gn:2513917;gnd:4038714-8;viaf:152444620;bnf:11954481s;loc:n80113609	Mérida					-6.3333333333333	38.915833333333	MULTIPOINT (-6.3333333333333 38.915833333333)		wd:	2026	
8349941	Modena			IT	wd:None;wd:Q279;gnd:4115170-7;viaf:130110243;bnf:11948652h;gn:6541461;tgn:7009565;loc:n79084709	Modena					10.92572	44.64582	MULTIPOINT (10.92572 44.64582)		wd:	2026	
8349942	Mont-Saint-Michel			FR	wd:None;wd:Q20892;gn:7522158;gnd:4040122-4;viaf:159857166;loc:n81100655;bnf:152623284	Mont-Saint-Michel					-1.5102777777778	48.635833333333	MULTIPOINT (-1.5102777777778 48.635833333333)		wd:	2026	
8349943	Moscow			RU	wd:None;wd:Q649;loc:n79076156;gnd:4074987-3;gn:524894;gn:524901;bnf:11933531v;tgn:7012974;viaf:293145671432505170005;viaf:142519565	Moscow					37.617777777778	55.755833333333	MULTIPOINT (37.617777777778 55.755833333333)		wd:	2026	
8349944	Mostar			BA	wd:None;wd:Q15508167	Mostar					17.80756	43.34215	MULTIPOINT (17.80756 43.34215)		wd:	2026	
8349945	Nancy			FR	wd:None;wd:Q40898;gnd:4041201-5;viaf:268444537;gn:2990999;loc:n79091171;bnf:15264464r;bnf:11865049g;tgn:7008412	Nancy					6.1836111111111	48.692777777778	MULTIPOINT (6.1836111111111 48.692777777778)		wd:	2026	
8349946	Naumburg			DE	wd:None;wd:Q15986;gnd:4041445-0;gn:6551223;viaf:126700985;loc:n82254953	Naumburg					11.809819	51.152095	MULTIPOINT (11.809819 51.152095)		wd:	2026	
8349948	Notodden			NO	wd:None;wd:Q1865470;gn:3144075	Notodden					9.25852778	59.55936111	MULTIPOINT (9.25852778 59.55936111)		wd:	2026	
8349949	Ohrid			MK	wd:None;wd:Q1223508;gnd:4043401-1;gn:787487;viaf:146582198;loc:n80123400	Ohrid					20.801944444444	41.116944444444	MULTIPOINT (20.801944444444 41.116944444444)		wd:	2026	
8349950	Oviedo			ES	wd:None;wd:Q14317;gn:6359947;gnd:4116850-1;viaf:155924709;loc:n79039812;bnf:11933545j	Oviedo					-5.8502777777778	43.3625	MULTIPOINT (-5.8502777777778 43.3625)		wd:	2026	
8349951	Padula			IT	wd:None;wd:Q30028505;gn:3171718	Padula					15.65634	40.33901	MULTIPOINT (15.65634 40.33901)		wd:	2026	
8349952	Palazzolo Acreide			IT	wd:None;wd:Q489260;gn:6539597;gnd:4137741-2;viaf:150177904;loc:n86037790	Palazzolo Acreide					14.902777777778	37.061666666667	MULTIPOINT (14.902777777778 37.061666666667)		wd:	2026	
8349954	Patmos			GR	wd:None;wd:Q12882473;gn:255688;loc:n80046343;viaf:129820968	Patmos					26.546666666667	37.309166666667	MULTIPOINT (26.546666666667 37.309166666667)		wd:	2026	
8349960	Rauma			FI	wd:None;wd:Q37013;gn:639734;bnf:137572858;loc:n83210400;viaf:165740729	Rauma					21.5	61.116666666667	MULTIPOINT (21.5 61.116666666667)		wd:	2026	
8349961	Regensburg			DE	wd:None;wd:Q2978;gnd:4048989-9;gn:6556611;loc:n79129587;viaf:248075075;viaf:233767411;viaf:312997796;bnf:119335624;tgn:7013496	Regensburg					12.083333333333334	49.016666666666666	MULTIPOINT (12.08333333333333 49.01666666666667)		wd:	2026	
8349962	Rhodes			GR	wd:None;wd:Q188731;gnd:4103772-8;gn:400666;viaf:427147270357235700008	Rhodes					28.216666666667	36.433333333333	MULTIPOINT (28.216666666667 36.433333333333)		wd:	2026	
8349963	Riga			LV	wd:None;wd:Q1773;gnd:4050042-1;gn:456172;viaf:312793147;loc:n79013823	Riga					24.106944444444	56.9475	MULTIPOINT (24.106944444444 56.9475)		wd:	2026	
8349964	Røros			NO	wd:None;wd:Q10428572;gn:3141332;viaf:125475764	Røros					11.3842	62.57468	MULTIPOINT (11.3842 62.57468)		wd:	2026	
8349965	Rotterdam			NL	wd:None;wd:Q34370;gnd:4050739-7;gn:2747891;viaf:123139768;loc:n79015636;tgn:7006792	Rotterdam					4.47917	51.9225	MULTIPOINT (4.47917 51.9225)		wd:	2026	
8350016	Guadalajara			MX	wd:None;wd:Q9022;gn:4005539;gnd:4233633-8;viaf:237191244;tgn:7007110;loc:n79112329	Guadalajara					-103.3475	20.676666666667	MULTIPOINT (-103.3475 20.676666666667)		wd:	2026	
8350017	Guanajuato			MX	wd:None;wd:Q61306;gnd:4239236-6;viaf:124348288;loc:n81119158;gn:4005270	Guanajuato					-101.25666666667	21.017777777778	MULTIPOINT (-101.25666666667 21.017777777778)		wd:	2026	
8350018	Havana			CU	wd:None;wd:Q1563;gnd:4023865-9;gn:3553478;viaf:129224713;loc:n79055428;bnf:11943634c;tgn:7006453	Havana					-82.358888888889	23.136666666667	MULTIPOINT (-82.358888888889 23.136666666667)		wd:	2026	
8350019	Lima			PE	wd:None;wd:Q2868;gn:3936456;gnd:4035742-9;viaf:153546881;loc:n79063382;tgn:7005821	Lima					-77.033333333333	-12.05	MULTIPOINT (-77.033333333333 -12.05)		wd:	2026	
8350020	Lunenburg			CA	wd:None;wd:Q2367165;gn:6062070	Lunenburg					-64.599166666667	44.433333333333	MULTIPOINT (-64.599166666667 44.433333333333)		wd:	2026	
8350021	Mexico City			MX	wd:None;wd:Q1489;gnd:4039060-3;loc:n79093328;gn:3527646;tgn:7007227;viaf:159683563	Mexico City					-99.145555555556	19.419444444444	MULTIPOINT (-99.145555555556 19.419444444444)		wd:	2026	
8350022	Morelia			MX	wd:None;wd:Q200252;gn:3995402;gnd:4040241-1;viaf:154772016;bnf:133344312;loc:n80129080	Morelia					-101.19222222222223	19.70277777777778	MULTIPOINT (-101.1922222222222 19.70277777777778)		wd:	2026	
8350023	Oaxaca			MX	wd:None;wd:Q131429;gn:3522507;gnd:4304252-1;bnf:152015495;bnf:11945182b;loc:n81144155;tgn:7007117;viaf:236944942	Oaxaca					-96.75	17.083333333333	MULTIPOINT (-96.75 17.083333333333)		wd:	2026	
8350024	Olinda			BR	wd:None;wd:Q32134361;gn:6320550	Olinda					-34.8731	-7.99743	MULTIPOINT (-34.8731 -7.99743)		wd:	2026	
8350025	Ouro Preto			BR	wd:None;wd:Q188905;gn:3455671;viaf:150105093;bnf:12725248t;loc:n81043527	Ouro Preto					-43.503611111111	-20.385277777778	MULTIPOINT (-43.503611111111 -20.385277777778)		wd:	2026	
8350026	Panama City			PA	wd:None;wd:Q3306;gn:3703443;gnd:4262523-3;viaf:142673786;loc:n79068689	Panama City					-79.5	9	MULTIPOINT (-79.5 9)		wd:	2026	
8350027	Philadelphia			US	wd:None;wd:Q1345;gn:4560349;gnd:4103331-0;gnd:1087309980;viaf:180363010;loc:n78095520;tgn:7014406;bnf:11940713z	Philadelphia					-75.163611111111	39.952777777778	MULTIPOINT (-75.163611111111 39.952777777778)		wd:	2026	
8350028	Potosí			BO	wd:None;wd:Q35045;gn:3907584;loc:n80070847;gnd:4103247-0;viaf:157738981	Potosí					-65.75	-19.583333333333	MULTIPOINT (-65.75 -19.583333333333)		wd:	2026	
8350029	Puebla			MX	wd:None;wd:Q125293;gn:3521081;gnd:4047790-3;viaf:152431104;bnf:11952897s;loc:n79070133	Puebla					-98.217777777778	19.051388888889	MULTIPOINT (-98.217777777778 19.051388888889)		wd:	2026	
8350030	Quebec City			CA	wd:None;wd:Q2145;gn:6325494;gn:8674020;gnd:4103473-9;gnd:1087369886;viaf:139293530;loc:n79126922;bnf:119326896;bnf:12175337f;tgn:7013095	Quebec City					-71.224167	46.816111	MULTIPOINT (-71.22416699999999 46.816111)		wd:	2026	
8350032	Quito			EC	wd:None;wd:Q2900;gn:3652462;gnd:4116883-5;viaf:312739660;loc:n80046224;bnf:119643586	Quito					-78.509722	-0.218611	MULTIPOINT (-78.509722 -0.218611)		wd:	2026	
8350033	Rimac			PE	wd:None;wd:Q963403;gn:8351046;viaf:155492233	Rimac					-77.027222222222	-12.035277777778	MULTIPOINT (-77.02722222222199 -12.035277777778)		wd:	2026	
8350034	Rio de Janeiro			BR	wd:None;wd:Q8678;gnd:4076741-3;loc:n79060405;gn:3451190;tgn:7017095;bnf:11998409v;viaf:131922060	Rio de Janeiro					-43.196388888889	-22.908333333333	MULTIPOINT (-43.196388888889 -22.908333333333)		wd:	2026	
8350035	Salvador			BR	wd:None;wd:Q36947;gn:3450554;gnd:4076978-1;viaf:125438036;loc:n79043524;bnf:11947810w	Salvador					-38.510833333333	-12.970833333333	MULTIPOINT (-38.510833333333 -12.970833333333)		wd:	2026	
8350036	San Antonio			US	wd:None;wd:Q975;gn:4726206;gnd:4124107-1;viaf:153426020;bnf:122278859;loc:n79054641;tgn:7014453	San Antonio					-98.49388888888889	29.425	MULTIPOINT (-98.49388888888889 29.425)		wd:	2026	
8350037	San Miguel de Allende			MX	wd:None;wd:Q753891;gn:3985344;gnd:4826895-1;viaf:263005253;viaf:129860254;loc:n82147188	San Miguel de Allende					-100.74388888889	20.915277777778	MULTIPOINT (-100.74388888889 20.915277777778)		wd:	2026	
8350038	San Pablo Villa de Mitla			MX	wd:None;wd:Q2396153;gn:3518117;bnf:12113473v;loc:n85307038;viaf:136116902	San Pablo Villa de Mitla					-96.361666666667	16.920833333333	MULTIPOINT (-96.36166666666701 16.920833333333)		wd:	2026	
8350039	Santa Ana de Coro			VE	wd:None;wd:Q1134454;gn:3645213;viaf:127652941;gnd:4241063-0;loc:n79034884	Santa Ana de Coro					-69.681583333333	11.395	MULTIPOINT (-69.68158333333299 11.395)		wd:	2026	
8350040	Santa Cruz de Mompox			CO	wd:None;wd:Q740288;gn:7910975;viaf:151316175;loc:n84028476	Santa Cruz de Mompox					-74.425	9.2394444444444	MULTIPOINT (-74.425 9.2394444444444)		wd:	2026	
8350041	São Luís			BR	wd:None;wd:Q28441;gn:3388368;gnd:4394684-7;viaf:147761653;bnf:11973901v;loc:n81140092	São Luís					-44.302777777778	-2.53	MULTIPOINT (-44.302777777778 -2.53)		wd:	2026	
8350042	St. George's			BM		St. George's										2026	
8350043	Sucre			BO	wd:None;wd:Q2907;gn:3903987;gnd:4118870-6;viaf:134865231;loc:n80070842;bnf:122068322	Sucre					-65.25917	-19.04306	MULTIPOINT (-65.25917 -19.04306)		wd:	2026	
8350044	Tlacotalpan			MX	wd:None;wd:Q20165790;gn:8583824	Tlacotalpan					-95.6667	18.6167	MULTIPOINT (-95.66670000000001 18.6167)		wd:	2026	
8350045	Trinidad			CU	wd:None;wd:Q31877141;gn:3534915;loc:n89146876;viaf:123274524	Trinidad					-79.98417	21.80194	MULTIPOINT (-79.98417000000001 21.80194)		wd:	2026	
8350046	Trujillo			PE	wd:None;wd:Q214173;gn:3691175;bnf:11957725v;gnd:132019-1	Trujillo					-79.028888888889	-8.1119444444444	MULTIPOINT (-79.028888888889 -8.111944444444401)		wd:	2026	
8350047	Valparaíso			CL	wd:None;wd:Q33986;gn:3868626;gnd:4198312-9;viaf:147752757;loc:n81018779	Valparaíso					-71.6197	-33.0458	MULTIPOINT (-71.61969999999999 -33.0458)		wd:	2026	
8350049	Xochimilco			MX	wd:None;wd:Q643026;gn:3514450;gn:8379481;gnd:4421049-8;viaf:235654948	Xochimilco					-99.138888888889	19.275	MULTIPOINT (-99.138888888889 19.275)		wd:	2026	
8350050	Zacatecas			MX	wd:None;wd:Q139242;gn:3979844;gnd:7599651-0;loc:n79127888	Zacatecas					-102.57527777778	22.771666666667	MULTIPOINT (-102.57527777778 22.771666666667)		wd:	2026	
8349872	Nara			JP	wd:None;wd:Q169134;gn:1855604;viaf:146601274;loc:n82044681;tgn:7004739;gnd:4117774-5	Nara					135.78333333333	34.683333333333	MULTIPOINT (135.78333333333 34.683333333333)		wd:	2026	
8349793	Agadez			NE	wd:None;wd:Q320049;gn:2448085;tgn:7000475;gnd:4079639-5;viaf:247187555	Agadez					7.9833333333333	16.966666666667	MULTIPOINT (7.9833333333333 16.966666666667)		wd:	2026	
8349796	Grand-Bassam			CI	wd:None;wd:Q582922;gn:2288115;viaf:153703333;gnd:4261371-1;loc:n87891554	Grand-Bassam					-3.7333333333333	5.2	MULTIPOINT (-3.7333333333333 5.2)		wd:	2026	
8349827	Aktau			KZ	wd:None;wd:Q198989;gn:610612;loc:n2001119388;viaf:149116509;gnd:4828545-6	Aktau					51.15	43.65	MULTIPOINT (51.15 43.65)		wd:	2026	
8349833	Bergama			TR	wd:None;wd:Q18986;gnd:4075982-9;gn:321426;loc:sh2010002654;bnf:119797639;viaf:316430079;pl:550812	Bergama					27.183333	39.116667	MULTIPOINT (27.183333 39.116667)		wd:	2026	
8349834	Bhaktapur			NP	wd:None;wd:Q843138;gn:1283618	Bhaktapur					85.427777777778	27.672222222222	MULTIPOINT (85.427777777778 27.672222222222)		wd:	2026	
8349835	Boeun			KR	wd:None;wd:Q50244;gn:1838730	Boeun					127.71861111111	36.484444444444	MULTIPOINT (127.71861111111 36.484444444444)		wd:	2026	
8349836	Bursa			TR	wd:None;wd:Q40738;gn:750269;gnd:4009173-9;viaf:123562716;loc:n85244249;bnf:15098127z	Bursa					29.066666666667	40.183333333333	MULTIPOINT (29.066666666667 40.183333333333)		wd:	2026	
8349837	Buyeo County			KR	wd:None;wd:Q50247;gn:1838508;gn:1838507;viaf:2825149619445804010009	Buyeo County					126.9125	36.281944444444	MULTIPOINT (126.9125 36.281944444444, 126.85802 36.26257)		wd:	2026	
8349843	George Town			MY	wd:None;wd:Q61092;gn:1735106;viaf:134874753;tgn:1082730;loc:n81034919;bnf:12361389v	George Town					100.3292	5.4145	MULTIPOINT (100.3292 5.4145)		wd:	2026	
8349844	Gianyar			ID	wd:None;wd:Q11298169	Gianyar					115.325079	-8.549124	MULTIPOINT (115.325079 -8.549124000000001)		wd:	2026	
8349845	Gochang County			KR	wd:None;wd:Q50210;gn:1842859	Gochang County					126.7	35.433333333333	MULTIPOINT (126.7 35.433333333333)		wd:	2026	
8349846	Gongju			KR	wd:None;wd:Q42062;gn:1842616	Gongju					127.12472222222	36.455555555556	MULTIPOINT (127.12472222222 36.455555555556)		wd:	2026	
8349847	Goris			AM	wd:None;wd:Q319735;gn:409323;gn:174895;loc:n00046113;viaf:153569557	Goris					46.341666666667	39.511111111111	MULTIPOINT (46.341666666667 39.511111111111)		wd:	2026	
8349848	Gwangju			KR	wd:None;wd:Q42069;gn:1841810;viaf:33149617024503752563	Gwangju					127.25916666667	37.409166666667	MULTIPOINT (127.25916666667 37.409166666667)		wd:	2026	
8349849	Gyeongju			KR	wd:None;wd:Q42097;gn:1841603;gnd:4246387-7;viaf:242637560	Gyeongju					129.21666666667	35.85	MULTIPOINT (129.21666666667 35.85)		wd:	2026	
8349850	Haenam			KR	wd:None;wd:Q50342;gn:1844751;gn:1844748;loc:n81022569;viaf:153611980	Haenam					126.5975	34.574166666667	MULTIPOINT (126.5975 34.574166666667)		wd:	2026	
8349851	Hapcheon			KR	wd:None;wd:Q50341;gn:1844410	Hapcheon					128.15944444444	35.565555555556	MULTIPOINT (128.15944444444 35.565555555556)		wd:	2026	
8349852	Hội An			VN	wd:None;wd:Q36160;gn:1580541;viaf:245816911	Hội An					108.33265	15.877669444444445	MULTIPOINT (108.33265 15.87766944444444)		wd:	2026	
8349854	Hwasun County			KR	wd:None;wd:Q50345;gn:1843841	Hwasun County					126.985	35.059444444444	MULTIPOINT (126.985 35.059444444444)		wd:	2026	
8349855	Istanbul			TR	wd:None;wd:Q406;gnd:4027821-9;viaf:135931454;bnf:11864652s;loc:n79034985;gn:745044;gn:745042;tgn:7002473	Istanbul					28.960277777778	41.01	MULTIPOINT (28.960277777778 41.01)		wd:	2026	
8349856	Iksan			KR	wd:None;wd:Q42137;gn:1843491;loc:n2010046850;viaf:138613771	Iksan					126.95444444444	35.943888888889	MULTIPOINT (126.95444444444 35.943888888889)		wd:	2026	
8349857	Jerusalem			IL	wd:None;wd:Q1218;tgn:7001371;viaf:131280745;gn:281184;gnd:4028586-8;pl:687928;bnf:118646774;loc:n81126877	Jerusalem					35.216666666667	31.783333333333	MULTIPOINT (35.216666666667 31.783333333333)		wd:	2026	
8349858	Jongno			KR	wd:None;wd:Q36929;gn:1845581	Jongno					126.979378	37.572916	MULTIPOINT (126.979378 37.572916)		wd:	2026	
8349859	Kandy			LK	wd:None;wd:Q203197;gn:1241622;gnd:4109992-8;viaf:261686973;bnf:16504534h;loc:n84018927	Kandy					80.638452777778	7.2969611111111	MULTIPOINT (80.638452777778 7.2969611111111)		wd:	2026	
8349860	Karangasem			ID	wd:None;wd:Q11501;gnd:4136789-3;gn:7086954;viaf:133757296;loc:n85156436	Karangasem					115.51666667	-8.36666667	MULTIPOINT (115.51666667 -8.366666670000001)		wd:	2026	
8349861	Kathmandu			NP	wd:None;wd:Q3037;gn:1283240;gnd:4030036-5;bnf:11940435f;viaf:133144648630034289125;viaf:158284130;loc:n81047119;tgn:1083294	Kathmandu					85.366666666667	27.716666666667	MULTIPOINT (85.366666666667 27.716666666667)		wd:	2026	
8349862	Khiva			UZ	wd:None;wd:Q486195;gn:1513604;gnd:5527280-0;viaf:130221816;bnf:12543696c;loc:n83052764	Khiva					60.363888888889	41.378333333333	MULTIPOINT (60.363888888889 41.378333333333)		wd:	2026	
8349863	Konya			TR	wd:None;wd:Q79857;gn:306571;gnd:4110361-0;loc:n80145386;viaf:155942204	Konya					32.484722222222	37.871388888889	MULTIPOINT (32.484722222222 37.871388888889)		wd:	2026	
8349864	Kyoto			JP	wd:None;wd:Q34600;tgn:7004603;viaf:157818195;gn:1857910;gnd:4073426-2;loc:n80024170	Kyoto					135.76805555556	35.011666666667	MULTIPOINT (135.76805555556 35.011666666667)		wd:	2026	
8349866	Levuka			FJ	wd:None;wd:Q26692;gn:2204418;viaf:128118568;loc:no89000317	Levuka					178.84012777778	-17.684013888889	MULTIPOINT (178.84012777778 -17.684013888889)		wd:	2026	
8349867	Lijiang			CN	wd:None;wd:Q205914;gn:1813253;gnd:4450393-3;viaf:235210091	Lijiang					100.22083333333	26.880833333333	MULTIPOINT (100.22083333333 26.880833333333)		wd:	2026	
8349868	Luang Prabang			LA	wd:None;wd:Q190165;gn:1655559;gnd:4234528-5;viaf:125509822;loc:n82062447;bnf:12205365d	Luang Prabang					102.13805555556	19.893055555556	MULTIPOINT (102.13805555556 19.893055555556, 102.13503 19.88601)		wd:	2026	
8349869	Macau			CN	wd:None;wd:Q14773;gn:1821275;gn:1821274;gnd:4036791-5;viaf:127787981;loc:n00020499;tgn:1082660	Macau					113.55	22.166666666667	MULTIPOINT (113.55 22.166666666667)		wd:	2026	
8349870	Melaka			MY	wd:None;wd:Q61089;gnd:4074496-6;viaf:138414737;gn:1734759;bnf:12002807j;loc:n83166292	Melaka					102.25111111111	2.1888888888889	MULTIPOINT (102.25111111111 2.1888888888889)		wd:	2026	
8349873	Pyay			MM	wd:None;wd:Q691747;gn:1299154;loc:n89181969;viaf:138497379	Pyay					95.221944444444	18.824444444444	MULTIPOINT (95.22194444444401 18.824444444444)		wd:	2026	
8349903	Bernau bei Berlin			DE	wd:None;wd:Q9300;gnd:4005772-0;gn:6551168;viaf:170350788;gov:BERNAUJO62TQ;tgn:1036448;bnf:151707608	Bernau bei Berlin					13.583055555556	52.666666666667	MULTIPOINT (13.583055555556 52.666666666667)		wd:	2026	
8349913	Coimbra			PT	wd:None;wd:Q45412;gn:8010483;viaf:128463982;gnd:4010369-9;loc:no99011103	Coimbra					-8.429072	40.211141	MULTIPOINT (-8.429072 40.211141)		wd:	2026	
8349916	Derbent			RU	wd:None;wd:Q131416;gn:566532;gn:830809;viaf:149036475;loc:n88249472;bnf:119313178	Derbent					48.295833333333	42.069166666667	MULTIPOINT (48.295833333333 42.069166666667)		wd:	2026	
8349947	Nesebar			BG	wd:None;wd:Q193241;gn:728825;gnd:4102456-4;viaf:130233659;bnf:121769558;loc:n84064102;pl:216882	Nesebar					27.713888888889	42.660833333333	MULTIPOINT (27.713888888889 42.660833333333)		wd:	2026	
8349953	Paris			FR	wd:None;wd:Q90;tgn:7008038;viaf:158822968;gn:2968815;gnd:4044660-8;bnf:152821567;bnf:11865278m;loc:n79058874	Paris					2.3513888888889	48.856944444444	MULTIPOINT (2.3513888888889 48.856944444444)		wd:	2026	
8349955	Porto			PT	wd:None;wd:Q36433;gn:6458924;gnd:4046838-0;viaf:139521806;loc:n50006403	Porto					-8.6107777777778	41.149472222222	MULTIPOINT (-8.6107777777778 41.149472222222)		wd:	2026	
8349956	Potsdam			DE	wd:None;wd:Q1711;gnd:4046948-7;gn:2852458;gn:7602560;loc:n50057895;viaf:155908018;gov:object_292541;tgn:7004463	Potsdam					13.066666666667	52.4	MULTIPOINT (13.066666666667 52.4)		wd:	2026	
8349957	Prague			CZ	wd:None;wd:Q1085;gnd:4076310-9;loc:n79055764;gn:3067696;bnf:15239961p;tgn:7006464;viaf:153543031;pl:118913	Prague					14.416666666667	50.083333333333	MULTIPOINT (14.416666666667 50.083333333333)		wd:	2026	
8349958	Provins			FR	wd:None;wd:Q203285;gn:2985229;gnd:4116114-2;viaf:157145361;bnf:15275718v;loc:n83167630	Provins					3.2994444444444	48.558888888889	MULTIPOINT (3.2994444444444 48.558888888889)		wd:	2026	
8349959	Quedlinburg			DE	wd:None;wd:Q40623;gnd:4048035-5;gn:6551148;loc:n83059759;bnf:11974663t;viaf:131386261	Quedlinburg					11.147222222222	51.791666666667	MULTIPOINT (11.147222222222 51.791666666667)		wd:	2026	
8349966	Saint Petersburg			RU	wd:None;wd:Q656;gn:498817;gnd:4267026-3;viaf:139487820;bnf:15289272f;loc:n81039599;tgn:7010273	Saint Petersburg					30.316666666667	59.95	MULTIPOINT (30.316666666667 59.95)		wd:	2026	
8349967	Salamanca			ES	wd:None;wd:Q15695;gn:6360513;gnd:4118281-9;viaf:157093141;loc:n79056177	Salamanca					-5.663888888888889	40.96666666666667	MULTIPOINT (-5.663888888888889 40.96666666666667)		wd:	2026	
8349968	Salzburg			AT	wd:None;wd:Q34713;gnd:4076982-3;loc:n80024359;viaf:143061561;gn:2766818;tgn:7003256	Salzburg					13.04768	47.7972	MULTIPOINT (13.04768 47.7972)		wd:	2026	
8349969	San Cristóbal de La Laguna			ES	wd:None;wd:Q54898;gn:2511401;gnd:4122599-5;viaf:154765853;loc:n80049579;bnf:122543029	San Cristóbal de La Laguna					-16.32	28.48	MULTIPOINT (-16.32 28.48)		wd:	2026	
8349970	San Gimignano			IT	wd:None;wd:Q91413;gnd:4118331-9;viaf:128995929;bnf:11994309m;gn:6539741;loc:n79121321	San Gimignano					11.043221	43.467719	MULTIPOINT (11.043221 43.467719)		wd:	2026	
8349971	Santiago de Compostela			ES	wd:None;wd:Q14314;gnd:4051658-1;bnf:12091096d;gn:6357346;tgn:7008643;loc:n79046621;viaf:131280231	Santiago de Compostela					-8.5333333333333	42.883333333333	MULTIPOINT (-8.533333333333299 42.883333333333)		wd:	2026	
8349972	Segovia			ES	wd:None;wd:Q15684;gn:6360915;gn:3109256;viaf:123150783;gnd:4118566-3;loc:n80038181	Segovia					-4.1166666666667	40.95	MULTIPOINT (-4.1166666666667 40.95)		wd:	2026	
8349973	Sighișoara			RO	wd:None;wd:Q193001;gn:8334977;gnd:4051983-1	Sighișoara					24.791111111111	46.216944444444	MULTIPOINT (24.791111111111 46.216944444444)		wd:	2026	
8349974	Sintra			PT	wd:None;wd:Q190187;gn:8010565;gnd:4297825-7;viaf:138429597;bnf:12356009j;loc:n84190492	Sintra					-9.3904166666667	38.797361111111	MULTIPOINT (-9.390416666666701 38.797361111111)		wd:	2026	
8349975	Split			HR	wd:None;wd:Q1663;gn:3190259;gnd:4077687-6;viaf:154775061;loc:n81008274	Split					16.45	43.51	MULTIPOINT (16.45 43.51)		wd:	2026	
8349977	Stralsund			DE	wd:None;wd:Q4065;gnd:4057860-4;loc:n50027114;viaf:146061010;gn:6551183;bnf:11972286w	Stralsund					13.083333333333	54.3	MULTIPOINT (13.083333333333 54.3)		wd:	2026	
8349978	Strasbourg			FR	wd:None;wd:Q6602;gnd:4057878-1;gn:2973783;loc:n79077528;bnf:15271624j;viaf:150696197;tgn:7012346	Strasbourg					7.7522222222222	48.573333333333	MULTIPOINT (7.7522222222222 48.573333333333)		wd:	2026	
8349979	Suzdal			RU	wd:None;wd:Q15757;gn:485824;gnd:4078090-9;viaf:141915943;loc:n82076111;bnf:119697842	Suzdal					40.448888888889	56.421111111111	MULTIPOINT (40.448888888889 56.421111111111)		wd:	2026	
8349980	Tallinn			EE	wd:None;wd:Q1770;gnd:4076684-6;gn:588409;viaf:160461922;loc:n79065462;bnf:119426731	Tallinn					24.745	59.437222222222	MULTIPOINT (24.745 59.437222222222)		wd:	2026	
8349981	Tarragona			ES	wd:None;wd:Q15088;gn:3108288;viaf:125477265;loc:n79054097	Tarragona					1.24532	41.11868	MULTIPOINT (1.24532 41.11868)		wd:	2026	
8349982	Telč			CZ	wd:None;wd:Q373804;gn:3064316;gnd:4119551-6;viaf:160098148;bnf:15540373k;loc:no95005025;tgn:1027585	Telč					15.452771068011	49.184229941699	MULTIPOINT (15.452771068011 49.184229941699)		wd:	2026	
8349983	Telford			GB	wd:None;wd:Q576938;gn:3345439;gnd:4499394-8;viaf:158283163;loc:n81035712	Telford					-2.4475	52.679166666667	MULTIPOINT (-2.4475 52.679166666667)		wd:	2026	
8349984	Tinn			NO	wd:None;wd:Q2365;gn:3134592	Tinn					8.559444	60.009167	MULTIPOINT (8.559443999999999 60.009167)		wd:	2026	
8349985	Toledo			ES	wd:None;wd:Q5836;gn:6361828;gn:2510409;gnd:4078343-1;viaf:133640606;viaf:150096584;loc:n79021811;pl:266066;tgn:7008719	Toledo					-4.0333333333333	39.866666666667	MULTIPOINT (-4.0333333333333 39.866666666667)		wd:	2026	
8349986	Toruń			PL	wd:None;wd:Q47554;gnd:4059950-4;gnd:2024611-0;gn:3083271;viaf:149128250	Toruń					18.616666666667	53.016666666667	MULTIPOINT (18.616666666667 53.016666666667)		wd:	2026	
8349987	Třebíč			CZ	wd:None;wd:Q270704;viaf:144308546;gn:3064104;gnd:4060770-7;pl:207510;loc:n85081817;tgn:1027575	Třebíč					15.881675935311	49.214967400263	MULTIPOINT (15.881675935311 49.214967400263)		wd:	2026	
8349988	Trogir			HR	wd:None;wd:Q189161;gn:3188762;gnd:4449181-5;viaf:144264595;loc:n82028293	Trogir					16.25	43.516666666667	MULTIPOINT (16.25 43.516666666667)		wd:	2026	
8349989	Úbeda			ES	wd:None;wd:Q329984;gn:2510116;gnd:4367949-3;loc:n81003098;viaf:138379394	Úbeda					-3.3716666666667	38.011666666667	MULTIPOINT (-3.3716666666667 38.011666666667)		wd:	2026	
8349990	Urbino			IT	wd:None;wd:Q2759;gn:6541472;gnd:4119316-7;viaf:122906755;tgn:7003994	Urbino					12.6372	43.725238888889	MULTIPOINT (12.6372 43.725238888889)		wd:	2026	
8349991	Vagharshapat			AM	wd:None;wd:Q183394;gn:616062;gnd:4478190-8;viaf:233869999;bnf:13544602k	Vagharshapat					44.2925	40.172777777778	MULTIPOINT (44.2925 40.172777777778)		wd:	2026	
8349992	Valletta			MT	wd:None;wd:Q23800;gn:2562305;gn:8334638;gnd:4119358-1;viaf:133703152;loc:n81103153;bnf:12009198f	Valletta					14.5125	35.897777777778	MULTIPOINT (14.5125 35.897777777778)		wd:	2026	
8349993	Vatican City			VA	wd:None;wd:Q237;bnf:15336233z;bnf:119337484;viaf:136038551;gnd:4062404-3;gn:3164670;loc:n80053295;tgn:7001168	Vatican City					12.453	41.904	MULTIPOINT (12.453 41.904)		wd:	2026	
8349995	Vienna			AT	wd:None;wd:Q1741;gnd:4066009-6;viaf:155870729;loc:n79018895;gn:2761369;bnf:118808983;tgn:7003321	Vienna					16.373064	48.20833	MULTIPOINT (16.373064 48.20833)		wd:	2026	
8349996	Vilnius			LT	wd:None;wd:Q216;loc:n82166208;gnd:5057560-0;viaf:153634702;gn:593116;bnf:119367972	Vilnius					25.283333333333	54.683333333333	MULTIPOINT (25.283333333333 54.683333333333)		wd:	2026	
8349997	Vinje			NO	wd:None;wd:Q2245;gn:6453365;viaf:202148995931759751354	Vinje					7.779167	59.801389	MULTIPOINT (7.779167 59.801389)		wd:	2026	
8349998	Visby			SE	wd:None;wd:Q1779992	Visby					18.29583333	57.64166667	MULTIPOINT (18.29583333 57.64166667)		wd:	2026	
8349999	Warsaw			PL	wd:None;wd:Q270;gnd:4079048-4;gn:756135;loc:n79018894;bnf:11957734t;viaf:146267734;tgn:7007833	Warsaw					21.033333333333	52.216666666667	MULTIPOINT (21.033333333333 52.216666666667)		wd:	2026	
8350000	Wismar			DE	wd:None;wd:Q7030;gnd:4201278-8;gn:7602561;viaf:130185013;bnf:13610297k;loc:n80093445	Wismar					11.465	53.8925	MULTIPOINT (11.465 53.8925)		wd:	2026	
8350001	Yaroslavl			RU	wd:None;wd:Q2423;gnd:4028510-8;gn:468902;viaf:123156052;loc:n80108747	Yaroslavl					39.85	57.616666666667	MULTIPOINT (39.85 57.616666666667)		wd:	2026	
8350002	Zamość			PL	wd:None;wd:Q602747;viaf:234309516;gnd:4357181-5	Zamość					23.2586	50.7206	MULTIPOINT (23.2586 50.7206)		wd:	2026	
8350003	Arequipa			PE	wd:None;wd:Q159273;gn:3947322;gnd:4264750-2;viaf:158905570;bnf:11971736g;loc:n81018505	Arequipa					-71.536883333333	-16.398763888889	MULTIPOINT (-71.53688333333299 -16.398763888889)		wd:	2026	
8350004	Belo Horizonte			BR	wd:None;wd:Q42800;gn:3470127;gnd:4005444-5;viaf:136031932;loc:n79107947	Belo Horizonte					-43.941944444444445	-19.928055555555556	MULTIPOINT (-43.94194444444445 -19.92805555555556)		wd:	2026	
8350006	Bridgetown			BB	wd:None;wd:Q36168;gn:3374036;gnd:4296876-8;viaf:151860556;bnf:14632711f;loc:n79066541	Bridgetown					-59.616666666667	13.0975	MULTIPOINT (-59.616666666667 13.0975)		wd:	2026	
8350007	Camagüey			CU	wd:None;wd:Q115329;viaf:137259118;gnd:4844671-3;loc:n84164259;gn:3566067	Camagüey					-77.918611111111	21.378611111111	MULTIPOINT (-77.91861111111101 21.378611111111)		wd:	2026	
8350008	Campeche			MX	wd:None;wd:Q61301;gn:3531732;viaf:150104981;loc:n81042173	Campeche					-90.525277777778	19.848611111111	MULTIPOINT (-90.525277777778 19.848611111111)		wd:	2026	
8350009	Cartagena			CO	wd:None;wd:Q657461;gn:3687238;gnd:4085163-1;viaf:238517527;bnf:12082848s;loc:n80001337	Cartagena					-75.525277777778	10.423611111111	MULTIPOINT (-75.525277777778 10.423611111111)		wd:	2026	
8350010	Colonia del Sacramento			UY	wd:None;wd:Q56064;gn:3443013;gnd:4590406-6;viaf:133133927;bnf:13616753s;loc:n81144571	Colonia del Sacramento					-57.844166666667	-34.471388888889	MULTIPOINT (-57.844166666667 -34.471388888889)		wd:	2026	
8350011	Cuenca			EC	wd:None;wd:Q54886;gn:7645168;viaf:313409835;gnd:4197713-0;bnf:12010606c;loc:n50046723	Cuenca					-79.004480555556	-2.8974138888889	MULTIPOINT (-79.004480555556 -2.8974138888889)		wd:	2026	
8350012	Cuernavaca			MX	wd:None;wd:Q204245;gn:3529947;gnd:4090639-5;viaf:125489559;bnf:122491738;loc:n80097922	Cuernavaca					-99.234166666667	18.918611111111	MULTIPOINT (-99.23416666666699 18.918611111111)		wd:	2026	
8350013	Cusco			PE	wd:None;wd:Q5582862;gnd:4090652-8;gn:3941584;viaf:153610071;bnf:11971901c;loc:n80162967;tgn:7005819	Cusco					-71.978056	-13.518333	MULTIPOINT (-71.978056 -13.518333)		wd:	2026	
8350014	Diamantina			BR		Diamantina										2026	
8350015	Fray Bentos			UY	wd:None;wd:Q849835;gn:3442568;viaf:138376810;loc:n80131831	Fray Bentos					-58.3	-33.133333333333	MULTIPOINT (-58.3 -33.133333333333)		wd:	2026	
8350031	Querétaro			MX	wd:None;wd:Q173121;gn:3991164;viaf:159454608;loc:n81042315	Querétaro					-100.38805555556	20.588055555556	MULTIPOINT (-100.38805555556 20.588055555556)		wd:	2026	
8350048	Willemstad			CW	wd:None;wd:Q132679;gn:3513090;gnd:4272973-7;viaf:151900846;loc:n82006299	Willemstad					-68.933333333333	12.116666666667	MULTIPOINT (-68.933333333333 12.116666666667)		wd:	2026	
8349832	Bam			IR	wd:None;wd:Q106636;viaf:157441510	Bam					58.358333	29.108333	MULTIPOINT (58.358333 29.108333)		wd:	2026	
8349853	Huế			VN	wd:None;wd:Q36167;gnd:4380726-4;loc:n83033293;tgn:7004240;bnf:119701597;gn:1580240;viaf:153640543	Huế					107.590859	16.463684	MULTIPOINT (107.590859 16.463684)		wd:	2026	
8349874	Safranbolu			TR	wd:None;wd:Q2662858	Safranbolu					32.692036	41.244486	MULTIPOINT (32.692036 41.244486)		wd:	2026	
8349976	Stockholm			SE	wd:None;wd:Q1754;gnd:4057648-6;gn:2673730;tgn:7009861;tgn:7003777;loc:n79018873;bnf:11880275s;viaf:151391324;viaf:153530943	Stockholm					18.068611111111	59.329444444444	MULTIPOINT (18.068611111111 59.329444444444)		wd:	2026	
8349994	Veliky Novgorod			RU	wd:None;wd:Q2235;gnd:4075511-3;gn:519336;viaf:130185097;viaf:125258797;tgn:7011581;bnf:11950271z;loc:no2008181315	Veliky Novgorod					31.27579	58.52099	MULTIPOINT (31.27579 58.52099)		wd:	2026	
8350005	Brasília			BR	wd:None;wd:Q2844;gn:3469058;gnd:4080517-7;viaf:142521983;bnf:11883341g;loc:n79072647	Brasília					-47.882777777778	-15.793888888889	MULTIPOINT (-47.882777777778 -15.793888888889)		wd:	2026	
